{
  "type": "FeatureCollection",
  "features": [
    {
      "type": "Feature",
      "properties": {
        "norad_id": 28890,
        "name": "BEIJING 1",
        "group": "dmc",
        "lat": 34.11877458202366,
        "lon": -45.2386877414228,
        "alt_km": 672.5261082838906,
        "timestamp": "2025-12-27T13:34:48.956399+00:00",
        "meta_object_name": "BEIJING 1",
        "meta_object_id": "2005-043A",
        "meta_epoch": "2025-12-27T07:59:47.437152",
        "meta_mean_motion": 14.63379351,
        "meta_eccentricity": 0.00158626,
        "meta_inclination": 98.2663,
        "meta_ra_of_asc_node": 128.8754,
        "meta_arg_of_pericenter": 98.5455,
        "meta_mean_anomaly": 261.7545,
        "meta_ephemeris_type": 0,
        "meta_classification_type": "U",
        "meta_norad_cat_id": 28890,
        "meta_element_set_no": 999,
        "meta_rev_at_epoch": 7551,
        "meta_bstar": 8.5179065e-05,
        "meta_mean_motion_dot": 3.92e-06,
        "meta_mean_motion_ddot": 0,
        "tle_line1": "1 28890U 05043A   25361.33318793  .00000392  00000+0  85179-4 0  9990",
        "tle_line2": "2 28890  98.2663 128.8754 0015862  98.5455 261.7545 14.63379351 75516"
      },
      "geometry": {
        "type": "Point",
        "coordinates": [
          -45.2386877414228,
          34.11877458202366
        ]
      }
    },
    {
      "type": "Feature",
      "properties": {
        "norad_id": 33320,
        "name": "HUANJING 1A (HJ-1A)",
        "group": "dmc",
        "lat": 19.482077998546853,
        "lon": 171.97353909520325,
        "alt_km": 631.8623414707517,
        "timestamp": "2025-12-27T13:34:48.956424+00:00",
        "meta_object_name": "HUANJING 1A (HJ-1A)",
        "meta_object_id": "2008-041A",
        "meta_epoch": "2025-12-27T06:23:05.294400",
        "meta_mean_motion": 14.83441834,
        "meta_eccentricity": 0.00189892,
        "meta_inclination": 97.6555,
        "meta_ra_of_asc_node": 348.9588,
        "meta_arg_of_pericenter": 347.9237,
        "meta_mean_anomaly": 12.152,
        "meta_ephemeris_type": 0,
        "meta_classification_type": "U",
        "meta_norad_cat_id": 33320,
        "meta_element_set_no": 999,
        "meta_rev_at_epoch": 93291,
        "meta_bstar": 0.00030022759,
        "meta_mean_motion_dot": 2.422e-05,
        "meta_mean_motion_ddot": 0,
        "tle_line1": "1 33320U 08041A   25361.26603350  .00002422  00000+0  30023-3 0  9996",
        "tle_line2": "2 33320  97.6555 348.9588 0018989 347.9237  12.1520 14.83441834932910"
      },
      "geometry": {
        "type": "Point",
        "coordinates": [
          171.97353909520325,
          19.482077998546853
        ]
      }
    },
    {
      "type": "Feature",
      "properties": {
        "norad_id": 33321,
        "name": "HUANJING 1B (HJ-1B)",
        "group": "dmc",
        "lat": -9.752878922733009,
        "lon": -5.773577086238521,
        "alt_km": 603.8272184533816,
        "timestamp": "2025-12-27T13:34:48.956438+00:00",
        "meta_object_name": "HUANJING 1B (HJ-1B)",
        "meta_object_id": "2008-041B",
        "meta_epoch": "2025-12-27T07:08:46.819104",
        "meta_mean_motion": 14.82862111,
        "meta_eccentricity": 0.00376408,
        "meta_inclination": 97.6413,
        "meta_ra_of_asc_node": 352.6479,
        "meta_arg_of_pericenter": 29.5678,
        "meta_mean_anomaly": 330.7654,
        "meta_ephemeris_type": 0,
        "meta_classification_type": "U",
        "meta_norad_cat_id": 33321,
        "meta_element_set_no": 999,
        "meta_rev_at_epoch": 93293,
        "meta_bstar": 0.00023336793,
        "meta_mean_motion_dot": 1.862e-05,
        "meta_mean_motion_ddot": 0,
        "tle_line1": "1 33321U 08041B   25361.29776411  .00001862  00000+0  23337-3 0  9996",
        "tle_line2": "2 33321  97.6413 352.6479 0037640  29.5678 330.7654 14.82862111932935"
      },
      "geometry": {
        "type": "Point",
        "coordinates": [
          -5.773577086238521,
          -9.752878922733009
        ]
      }
    },
    {
      "type": "Feature",
      "properties": {
        "norad_id": 33446,
        "name": "YAOGAN-4",
        "group": "dmc",
        "lat": -73.2806885766969,
        "lon": 83.91160826060509,
        "alt_km": 619.2916671673829,
        "timestamp": "2025-12-27T13:34:48.956450+00:00",
        "meta_object_name": "YAOGAN-4",
        "meta_object_id": "2008-061A",
        "meta_epoch": "2025-12-27T05:57:11.988288",
        "meta_mean_motion": 14.82725658,
        "meta_eccentricity": 0.00129687,
        "meta_inclination": 97.9199,
        "meta_ra_of_asc_node": 291.2063,
        "meta_arg_of_pericenter": 271.6936,
        "meta_mean_anomaly": 88.2792,
        "meta_ephemeris_type": 0,
        "meta_classification_type": "U",
        "meta_norad_cat_id": 33446,
        "meta_element_set_no": 999,
        "meta_rev_at_epoch": 92018,
        "meta_bstar": 0.0002107495,
        "meta_mean_motion_dot": 1.65e-05,
        "meta_mean_motion_ddot": 0,
        "tle_line1": "1 33446U 08061A   25361.24805542  .00001650  00000+0  21075-3 0  9991",
        "tle_line2": "2 33446  97.9199 291.2063 0012968 271.6936  88.2792 14.82725658920183"
      },
      "geometry": {
        "type": "Point",
        "coordinates": [
          83.91160826060509,
          -73.2806885766969
        ]
      }
    },
    {
      "type": "Feature",
      "properties": {
        "norad_id": 35681,
        "name": "DEIMOS-1",
        "group": "dmc",
        "lat": -27.59347547754546,
        "lon": 165.54309574154956,
        "alt_km": 650.8758206487419,
        "timestamp": "2025-12-27T13:34:48.956461+00:00",
        "meta_object_name": "DEIMOS-1",
        "meta_object_id": "2009-041A",
        "meta_epoch": "2025-12-27T07:11:37.592160",
        "meta_mean_motion": 14.74975988,
        "meta_eccentricity": 0.00023938,
        "meta_inclination": 97.7159,
        "meta_ra_of_asc_node": 161.2261,
        "meta_arg_of_pericenter": 57.5087,
        "meta_mean_anomaly": 302.6354,
        "meta_ephemeris_type": 0,
        "meta_classification_type": "U",
        "meta_norad_cat_id": 35681,
        "meta_element_set_no": 999,
        "meta_rev_at_epoch": 88154,
        "meta_bstar": 0.00017626894,
        "meta_mean_motion_dot": 1.138e-05,
        "meta_mean_motion_ddot": 0,
        "tle_line1": "1 35681U 09041A   25361.29974065  .00001138  00000+0  17627-3 0  9994",
        "tle_line2": "2 35681  97.7159 161.2261 0002393  57.5087 302.6354 14.74975988881542"
      },
      "geometry": {
        "type": "Point",
        "coordinates": [
          165.54309574154956,
          -27.59347547754546
        ]
      }
    },
    {
      "type": "Feature",
      "properties": {
        "norad_id": 35683,
        "name": "UK-DMC 2",
        "group": "dmc",
        "lat": 23.06404095032345,
        "lon": 132.67987095690714,
        "alt_km": 642.2656913383744,
        "timestamp": "2025-12-27T13:34:48.956472+00:00",
        "meta_object_name": "UK-DMC 2",
        "meta_object_id": "2009-041C",
        "meta_epoch": "2025-12-27T06:57:55.756224",
        "meta_mean_motion": 14.7565424,
        "meta_eccentricity": 0.00015939,
        "meta_inclination": 97.8573,
        "meta_ra_of_asc_node": 135.783,
        "meta_arg_of_pericenter": 92.6689,
        "meta_mean_anomaly": 267.4703,
        "meta_ephemeris_type": 0,
        "meta_classification_type": "U",
        "meta_norad_cat_id": 35683,
        "meta_element_set_no": 999,
        "meta_rev_at_epoch": 88121,
        "meta_bstar": 0.00022678175,
        "meta_mean_motion_dot": 1.5e-05,
        "meta_mean_motion_ddot": 0,
        "tle_line1": "1 35683U 09041C   25361.29022866  .00001500  00000+0  22678-3 0  9994",
        "tle_line2": "2 35683  97.8573 135.7830 0001593  92.6689 267.4703 14.75654240881218"
      },
      "geometry": {
        "type": "Point",
        "coordinates": [
          132.67987095690714,
          23.06404095032345
        ]
      }
    },
    {
      "type": "Feature",
      "properties": {
        "norad_id": 40715,
        "name": "DMC3-FM1",
        "group": "dmc",
        "lat": -54.609786958868135,
        "lon": 37.285485658096405,
        "alt_km": 616.5409283509571,
        "timestamp": "2025-12-27T13:34:48.956483+00:00",
        "meta_object_name": "DMC3-FM1",
        "meta_object_id": "2015-032A",
        "meta_epoch": "2025-12-27T06:03:26.614368",
        "meta_mean_motion": 14.8546452,
        "meta_eccentricity": 0.00040846,
        "meta_inclination": 97.6678,
        "meta_ra_of_asc_node": 227.9156,
        "meta_arg_of_pericenter": 259.1112,
        "meta_mean_anomaly": 100.9644,
        "meta_ephemeris_type": 0,
        "meta_classification_type": "U",
        "meta_norad_cat_id": 40715,
        "meta_element_set_no": 999,
        "meta_rev_at_epoch": 56438,
        "meta_bstar": 0.00011827869,
        "meta_mean_motion_dot": 9.69e-06,
        "meta_mean_motion_ddot": 0,
        "tle_line1": "1 40715U 15032A   25361.25239137  .00000969  00000+0  11828-3 0  9993",
        "tle_line2": "2 40715  97.6678 227.9156 0004084 259.1112 100.9644 14.85464520564380"
      },
      "geometry": {
        "type": "Point",
        "coordinates": [
          37.285485658096405,
          -54.609786958868135
        ]
      }
    },
    {
      "type": "Feature",
      "properties": {
        "norad_id": 40716,
        "name": "DMC3-FM2",
        "group": "dmc",
        "lat": 63.74003814291751,
        "lon": 65.5319864614546,
        "alt_km": 608.664029036865,
        "timestamp": "2025-12-27T13:34:48.956493+00:00",
        "meta_object_name": "DMC3-FM2",
        "meta_object_id": "2015-032B",
        "meta_epoch": "2025-12-27T06:35:48.543360",
        "meta_mean_motion": 14.85469184,
        "meta_eccentricity": 0.00045117,
        "meta_inclination": 97.6737,
        "meta_ra_of_asc_node": 229.3916,
        "meta_arg_of_pericenter": 267.0302,
        "meta_mean_anomaly": 93.0397,
        "meta_ephemeris_type": 0,
        "meta_classification_type": "U",
        "meta_norad_cat_id": 40716,
        "meta_element_set_no": 999,
        "meta_rev_at_epoch": 56438,
        "meta_bstar": 0.00017551238,
        "meta_mean_motion_dot": 1.462e-05,
        "meta_mean_motion_ddot": 0,
        "tle_line1": "1 40716U 15032B   25361.27486740  .00001462  00000+0  17551-3 0  9998",
        "tle_line2": "2 40716  97.6737 229.3916 0004511 267.0302  93.0397 14.85469184564389"
      },
      "geometry": {
        "type": "Point",
        "coordinates": [
          65.5319864614546,
          63.74003814291751
        ]
      }
    },
    {
      "type": "Feature",
      "properties": {
        "norad_id": 40717,
        "name": "DMC3-FM3",
        "group": "dmc",
        "lat": -1.1839817745510797,
        "lon": -128.5251600528713,
        "alt_km": 615.41692943198,
        "timestamp": "2025-12-27T13:34:48.956503+00:00",
        "meta_object_name": "DMC3-FM3",
        "meta_object_id": "2015-032C",
        "meta_epoch": "2025-12-27T07:07:08.278176",
        "meta_mean_motion": 14.85450878,
        "meta_eccentricity": 0.0003888,
        "meta_inclination": 97.6792,
        "meta_ra_of_asc_node": 231.0554,
        "meta_arg_of_pericenter": 268.5672,
        "meta_mean_anomaly": 91.5098,
        "meta_ephemeris_type": 0,
        "meta_classification_type": "U",
        "meta_norad_cat_id": 40717,
        "meta_element_set_no": 999,
        "meta_rev_at_epoch": 56439,
        "meta_bstar": 5.3588433e-05,
        "meta_mean_motion_dot": 4.1e-06,
        "meta_mean_motion_ddot": 0,
        "tle_line1": "1 40717U 15032C   25361.29662359  .00000410  00000+0  53588-4 0  9996",
        "tle_line2": "2 40717  97.6792 231.0554 0003888 268.5672  91.5098 14.85450878564393"
      },
      "geometry": {
        "type": "Point",
        "coordinates": [
          -128.5251600528713,
          -1.1839817745510797
        ]
      }
    }
  ]
}